NORAD_CAT_ID,OBJECT_NAME,OBJECT_TYPE,EPOCH,MEAN_MOTION,ECCENTRICITY,INCLINATION,RA_OF_ASC_NODE,ARG_OF_PERICENTER,MEAN_ANOMALY,BSTAR,MEAN_MOTION_DOT,MEAN_MOTION_DDOT,TLE_LINE0,TLE_LINE1,TLE_LINE2,SEMIMAJOR_AXIS,PERIOD,APOGEE,PERIGEE,DECAYED
55636.0,STARLINK-5218,PAYLOAD,2024-02-04 20:20:17,14.98330912,0.0002394,70.0013,330.3102,262.5398,97.5489,8.0894e-05,8.72e-06,0.0,0 STARLINK-5218,1 55636U 23021J   24035.84742077  .00000872  00000-0  80894-4 0  9996,2 55636  70.0013 330.3102 0002394 262.5398  97.5489 14.98330912 53586,6950.19,96.107,573.719,570.391,0.0
55636.0,STARLINK-5218,PAYLOAD,2024-02-04 21:56:25,14.98330437,0.0002414,70.0013,330.1418,262.366,97.7225,7.0049e-05,7.43e-06,0.0,0 STARLINK-5218,1 55636U 23021J   24035.91418093  .00000743  00000-0  70049-4 0  9990,2 55636  70.0013 330.1418 0002414 262.3660  97.7225 14.98330437 53893,6950.192,96.107,573.734,570.379,0.0
55636.0,STARLINK-5218,PAYLOAD,2024-02-05 12:21:37,14.98331793,0.0002378,70.0015,328.6269,264.5696,95.5192,3.6329e-05,3.41e-06,0.0,0 STARLINK-5218,1 55636U 23021J   24036.51502104  .00000341  00000-0  36329-4 0  9991,2 55636  70.0015 328.6269 0002378 264.5696  95.5192 14.98331793 53988,6950.187,96.107,573.705,570.4,0.0
55636.0,STARLINK-5218,PAYLOAD,2024-02-05 20:22:17,14.98332986,0.000245,70.0013,327.785,265.8009,94.2871,9.375e-05,1.026e-05,0.0,0 STARLINK-5218,1 55636U 23021J   24036.84881796  .00001026  00000-0  93750-4 0  9996,2 55636  70.0013 327.7850 0002450 265.8009  94.2871 14.98332986 53733,6950.184,96.107,573.751,570.346,0.0
55636.0,STARLINK-5218,PAYLOAD,2024-02-05 21:58:25,14.98332995,0.0002448,70.0013,327.6167,265.9055,94.1824,8.6389e-05,9.38e-06,0.0,0 STARLINK-5218,1 55636U 23021J   24036.91557791  .00000938  00000-0  86389-4 0  9990,2 55636  70.0013 327.6167 0002448 265.9055  94.1824 14.98332995 54044,6950.184,96.107,573.75,570.347,0.0
55636.0,STARLINK-5218,PAYLOAD,2024-02-06 04:22:57,14.98353445,0.000255,70.0014,326.9435,265.8178,94.2689,-0.0002575,-3.166e-05,0.0,0 STARLINK-5218,1 55636U 23021J   24037.18261089 -.00003166  00000-0 -25750-3 0  9994,2 55636  70.0014 326.9435 0002550 265.8178  94.2689 14.98353445 53787,6950.12,96.105,573.758,570.213,0.0
55636.0,STARLINK-5218,PAYLOAD,2024-02-06 22:00:26,14.9833228,0.00025,70.0013,325.0919,266.0936,93.9937,7.7574e-05,8.33e-06,0.0,0 STARLINK-5218,1 55636U 23021J   24037.91697639  .00000833  00000-0  77574-4 0  9997,2 55636  70.0013 325.0919 0002500 266.0936  93.9937 14.98332280 54195,6950.186,96.107,573.788,570.313,0.0
55636.0,STARLINK-5218,PAYLOAD,2024-02-07 02:48:50,14.98333291,0.0002496,70.0012,324.5869,266.0923,93.9951,8.458e-05,9.16e-06,0.0,0 STARLINK-5218,1 55636U 23021J   24038.11725533  .00000916  00000-0  84580-4 0  9992,2 55636  70.0012 324.5869 0002496 266.0923  93.9951 14.98333291 53921,6950.183,96.107,573.782,570.313,0.0
55636.0,STARLINK-5218,PAYLOAD,2024-02-07 12:25:39,14.9832745,0.0002393,70.0013,323.5768,273.9611,86.1275,-3.4509e-05,-5.05e-06,0.0,0 STARLINK-5218,1 55636U 23021J   24038.51782230 -.00000505  00000-0 -34509-4 0  9995,2 55636  70.0013 323.5768 0002393 273.9611  86.1275 14.98327450 53985,6950.201,96.107,573.729,570.403,0.0
55636.0,STARLINK-5218,PAYLOAD,2024-02-07 22:02:28,14.9832087,0.0002705,70.0011,322.5651,271.7563,88.3286,-1.1465e-05,-2.3e-06,0.0,0 STARLINK-5218,1 55636U 23021J   24038.91838627 -.00000230  00000-0 -11465-4 0  9992,2 55636  70.0011 322.5651 0002705 271.7563  88.3286 14.98320870 54348,6950.221,96.108,573.966,570.206,0.0
55636.0,STARLINK-5218,PAYLOAD,2024-02-08 01:14:44,14.98319792,0.0002764,70.0009,322.2288,271.4638,88.6204,-3.8373e-05,-5.51e-06,0.0,0 STARLINK-5218,1 55636U 23021J   24039.05190816 -.00000551  00000-0 -38373-4 0  9992,2 55636  70.0009 322.2288 0002764 271.4638  88.6204 14.98319792 54066,6950.224,96.108,574.011,570.168,0.0
55636.0,STARLINK-5218,PAYLOAD,2024-02-08 04:27:00,14.98321582,0.0002615,70.0013,321.8926,271.8108,88.2751,-2.5924e-05,-4.02e-06,0.0,0 STARLINK-5218,1 55636U 23021J   24039.18542713 -.00000402  00000-0 -25924-4 0  9996,2 55636  70.0013 321.8926 0002615 271.8108  88.2751 14.98321582 54384,6950.219,96.108,573.901,570.266,0.0
55636.0,STARLINK-5218,PAYLOAD,2024-02-08 20:28:20,14.98332522,0.0002641,70.0007,320.2091,269.6395,90.4461,3.2556e-05,2.96e-06,0.0,0 STARLINK-5218,1 55636U 23021J   24039.85302001  .00000296  00000-0  32556-4 0  9992,2 55636  70.0007 320.2091 0002641 269.6395  90.4461 14.98332522 54182,6950.185,96.107,573.886,570.215,0.0
55636.0,STARLINK-5218,PAYLOAD,2024-02-08 22:04:28,14.98332839,0.0002637,70.0008,320.0407,269.579,90.5067,3.6596e-05,3.44e-06,0.0,0 STARLINK-5218,1 55636U 23021J   24039.91977959  .00000344  00000-0  36596-4 0  9991,2 55636  70.0008 320.0407 0002637 269.5790  90.5067 14.98332839 54493,6950.184,96.107,573.882,570.216,0.0
55636.0,STARLINK-5218,PAYLOAD,2024-02-09 04:29:00,14.9833748,0.0002609,70.0008,319.3677,270.3985,89.6875,9.3925e-05,1.028e-05,0.0,0 STARLINK-5218,1 55636U 23021J   24040.18681511  .00001028  00000-0  93925-4 0  9997,2 55636  70.0008 319.3677 0002609 270.3985  89.6875 14.98337480 54536,6950.17,96.107,573.848,570.221,0.0
55636.0,STARLINK-5218,PAYLOAD,2024-02-10 02:54:54,14.9832695,0.0002631,70.0008,317.0114,267.8028,92.283,0.00013179,1.48e-05,0.0,0 STARLINK-5218,1 55636U 23021J   24041.12146252  .00001480  00000-0  13179-3 0  9994,2 55636  70.0008 317.0114 0002631 267.8028  92.2830 14.98326950 54374,6950.202,96.107,573.896,570.239,0.0
55636.0,STARLINK-5218,PAYLOAD,2024-02-10 04:31:02,14.98329013,0.0002633,70.0008,316.8432,267.7414,92.3444,0.00015497,1.757e-05,0.0,0 STARLINK-5218,1 55636U 23021J   24041.18822141  .00001757  00000-0  15497-3 0  9990,2 55636  70.0008 316.8432 0002633 267.7414  92.3444 14.98329013 54683,6950.196,96.107,573.891,570.231,0.0
55636.0,STARLINK-5218,PAYLOAD,2024-02-10 20:32:22,14.98337941,0.0002549,70.0009,315.1601,270.8198,89.2669,7.1477e-05,7.6e-06,0.0,0 STARLINK-5218,1 55636U 23021J   24041.85581747  .00000760  00000-0  71477-4 0  9992,2 55636  70.0009 315.1601 0002549 270.8198  89.2669 14.98337941 54485,6950.168,96.106,573.805,570.262,0.0
55636.0,STARLINK-5218,PAYLOAD,2024-02-10 22:08:30,14.98337288,0.0002575,70.0008,314.9918,270.2997,89.7867,6.0229e-05,6.26e-06,0.0,0 STARLINK-5218,1 55636U 23021J   24041.92257781  .00000626  00000-0  60229-4 0  9992,2 55636  70.0008 314.9918 0002575 270.2997  89.7867 14.98337288 54795,6950.17,96.107,573.825,570.246,0.0
55636.0,STARLINK-5218,PAYLOAD,2024-02-11 04:33:02,14.98340949,0.0002532,70.0009,314.3184,269.4212,90.6657,9.8348e-05,1.081e-05,0.0,0 STARLINK-5218,1 55636U 23021J   24042.18961292  .00001081  00000-0  98348-4 0  9999,2 55636  70.0009 314.3184 0002532 269.4212  90.6657 14.98340949 54839,6950.159,96.106,573.784,570.264,0.0
55636.0,STARLINK-5218,PAYLOAD,2024-02-11 20:34:23,14.98333333,0.000241,70.0013,312.6359,253.4456,106.6438,9.1484e-05,9.99e-06,0.0,0 STARLINK-5218,1 55636U 23021J   24042.85721442  .00000999  00000-0  91484-4 0  9995,2 55636  70.0013 312.6359 0002410 253.4456 106.6438 14.98333333 54639,6950.183,96.107,573.723,570.373,0.0
55636.0,STARLINK-5218,PAYLOAD,2024-02-12 04:35:03,14.98336587,0.0002378,70.0014,311.7943,251.2777,108.8124,0.0001187,1.324e-05,0.0,0 STARLINK-5218,1 55636U 23021J   24043.19101119  .00001324  00000-0  11870-3 0  9999,2 55636  70.0014 311.7943 0002378 251.2777 108.8124 14.98336587 54982,6950.173,96.107,573.69,570.385,0.0
55636.0,STARLINK-5218,PAYLOAD,2024-02-12 19:00:16,14.98317313,0.0002338,70.0026,310.2798,235.9401,124.1536,0.00022207,2.557e-05,0.0,0 STARLINK-5218,1 55636U 23021J   24043.79185863  .00002557  00000-0  22207-3 0  9998,2 55636  70.0026 310.2798 0002338 235.9401 124.1536 14.98317313 54777,6950.232,96.108,573.722,570.472,0.0
55636.0,STARLINK-5218,PAYLOAD,2024-02-12 22:12:35,14.98289938,0.0002407,70.0012,309.9431,256.1759,103.9132,-0.00047094,-5.701e-05,0.0,0 STARLINK-5218,1 55636U 23021J   24043.92541400 -.00005701  00000-0 -47094-3 0  9993,2 55636  70.0012 309.9431 0002407 256.1759 103.9132 14.98289938 55093,6950.317,96.11,573.855,570.509,0.0
55636.0,STARLINK-5218,PAYLOAD,2024-02-13 03:00:55,14.98348018,0.0002742,70.0007,309.438,240.3566,119.732,0.0001687,1.921e-05,0.0,0 STARLINK-5218,1 55636U 23021J   24044.12564487  .00001921  00000-0  16870-3 0  9992,2 55636  70.0007 309.4380 0002742 240.3566 119.7320 14.98348018 54827,6950.137,96.106,573.908,570.096,0.0
55636.0,STARLINK-5218,PAYLOAD,2024-02-13 11:01:37,14.98337295,0.0001911,70.0029,308.5954,285.4623,74.6325,4.4884e-05,4.43e-06,0.0,0 STARLINK-5218,1 55636U 23021J   24044.45945630  .00000443  00000-0  44884-4 0  9996,2 55636  70.0029 308.5954 0001911 285.4623  74.6325 14.98337295 54873,6950.17,96.107,573.364,570.707,0.0
55636.0,STARLINK-5218,PAYLOAD,2024-02-13 22:14:33,14.98329105,0.0002529,69.9997,307.4169,261.18,98.9073,-5.0568e-05,-6.96e-06,0.0,0 STARLINK-5218,1 55636U 23021J   24044.92678117 -.00000696  00000-0 -50568-4 0  9999,2 55636  69.9997 307.4169 0002529 261.1800  98.9073 14.98329105 55246,6950.196,96.107,573.818,570.303,0.0
55636.0,STARLINK-5218,PAYLOAD,2024-02-14 11:03:38,14.98334241,0.000236,69.9998,306.0679,272.9454,87.1435,-3.8945e-05,-5.58e-06,0.0,0 STARLINK-5218,1 55636U 23021J   24045.46085726 -.00000558  00000-0 -38945-4 0  9999,2 55636  69.9998 306.0679 0002360 272.9454  87.1435 14.98334241 55021,6950.18,96.107,573.685,570.405,0.0
55636.0,STARLINK-5218,PAYLOAD,2024-02-14 17:28:10,14.9830464,0.0002278,69.9996,305.3949,268.1373,91.9525,0.00046145,5.413e-05,0.0,0 STARLINK-5218,1 55636U 23021J   24045.72790257  .00005413  00000-0  46145-3 0  9993,2 55636  69.9996 305.3949 0002278 268.1373  91.9525 14.98304640 55063,6950.271,96.109,573.72,570.553,0.0
55636.0,STARLINK-5218,PAYLOAD,2024-02-14 22:16:35,14.98305713,0.0001949,70.0005,304.8913,261.4848,98.609,0.00043298,5.074e-05,0.0,0 STARLINK-5218,1 55636U 23021J   24045.92818571  .00005074  00000-0  43298-3 0  9994,2 55636  70.0005 304.8913 0001949 261.4848  98.6090 14.98305713 55398,6950.268,96.109,573.488,570.778,0.0
